SL-3 R/B                
1 13154U 82039B   25310.24445470  .00003327  00000+0  20525-3 0  9998
2 13154  81.1815 358.0568 0032585  11.1992 348.9950 15.09223798363018
SL-3 R/B                
1 13403U 82079B   25310.22425259  .00007314  00000+0  30723-3 0  9991
2 13403  81.1469 338.6913 0024890 220.6548 139.2827 15.23012934358890
SL-14 R/B               
1 13553U 82092B   25310.27425791  .00000927  00000+0  10179-3 0  9994
2 13553  82.5670 256.8127 0020306 355.5055 118.4069 14.86490344310597
SL-3 R/B                
1 13819U 83010B   25310.06218462  .00015073  00000+0  34927-3 0  9997
2 13819  81.1022 153.3434 0018348 115.2394 245.0753 15.42116855338862
SL-3 R/B                
1 14208U 83075B   25310.23103824  .00015010  00000+0  44008-3 0  9997
2 14208  97.6096 305.5182 0021791 314.8165  45.1305 15.35055091311193
COSMOS 1536             
1 14699U 84013A   25310.25735988  .00012821  00000+0  56052-3 0  9997
2 14699  82.5478 230.3216 0015468   4.9820 355.1567 15.21856186253835
SL-14 R/B               
1 14820U 84027B   25310.19012962  .00000679  00000+0  75104-4 0  9999
2 14820  82.5436   0.8312 0018652  27.1281 333.0906 14.85817770229298
SL-8 R/B                
1 15483U 85006B   25310.24168824  .00000326  00000+0  11707-3 0  9995
2 15483  74.0429 128.2832 0017493  72.6494 100.2416 14.37686983136280
SL-12 R/B(2)            
1 15772U 85042D   25310.30831094  .00000225  00000+0  12273-3 0  9996
2 15772  71.1092 348.3875 0037018 314.9586 118.8777 14.21934198 96856
SL-14 R/B               
1 15945U 85069B   25310.27954542  .00000703  00000+0  77016-4 0  9995
2 15945  82.5249 140.9815 0017500 239.0425 120.9072 14.86258644154506
SL-16 R/B               
1 16182U 85097B   25310.27301632 -.00000158  00000+0 -55171-4 0  9990
2 16182  71.0047  40.3738 0005085  81.1130 343.9437 14.16576624 69758
SL-14 R/B               
1 16496U 86006B   25310.28642593  .00000925  00000+0  96306-4 0  9999
2 16496  82.5298  15.8469 0075850 322.7008  36.8954 14.86595602130872
