CCSDS_OMM_VERS = 2.0
CREATION_DATE  = 
ORIGINATOR     = 

OBJECT_NAME    = SL-3 R/B
OBJECT_ID      = 1982-039B
CENTER_NAME    = EARTH
REF_FRAME      = TEME
TIME_SYSTEM    = UTC
MEAN_ELEMENT_THEORY = SGP/SGP4

EPOCH          = 2025-11-06T05:52:00.886080
MEAN_MOTION    = 15.09223798
ECCENTRICITY   = .0032585
INCLINATION    = 81.1815
RA_OF_ASC_NODE = 358.0568
ARG_OF_PERICENTER = 11.1992
MEAN_ANOMALY   = 348.9950

EPHEMERIS_TYPE = 0
CLASSIFICATION_TYPE = U
NORAD_CAT_ID   = 13154
ELEMENT_SET_NO = 999
REV_AT_EPOCH   = 36301
BSTAR          = .20524855E-3
MEAN_MOTION_DOT = .3327E-4
MEAN_MOTION_DDOT = 0

CCSDS_OMM_VERS = 2.0
CREATION_DATE  = 
ORIGINATOR     = 

OBJECT_NAME    = SL-3 R/B
OBJECT_ID      = 1982-079B
CENTER_NAME    = EARTH
REF_FRAME      = TEME
TIME_SYSTEM    = UTC
MEAN_ELEMENT_THEORY = SGP/SGP4

EPOCH          = 2025-11-06T05:22:55.423776
MEAN_MOTION    = 15.23012934
ECCENTRICITY   = .00248903
INCLINATION    = 81.1469
RA_OF_ASC_NODE = 338.6913
ARG_OF_PERICENTER = 220.6548
MEAN_ANOMALY   = 139.2827

EPHEMERIS_TYPE = 0
CLASSIFICATION_TYPE = U
NORAD_CAT_ID   = 13403
ELEMENT_SET_NO = 999
REV_AT_EPOCH   = 35889
BSTAR          = .30722789E-3
MEAN_MOTION_DOT = .7314E-4
MEAN_MOTION_DDOT = 0

CCSDS_OMM_VERS = 2.0
CREATION_DATE  = 
ORIGINATOR     = 

OBJECT_NAME    = SL-14 R/B
OBJECT_ID      = 1982-092B
CENTER_NAME    = EARTH
REF_FRAME      = TEME
TIME_SYSTEM    = UTC
MEAN_ELEMENT_THEORY = SGP/SGP4

EPOCH          = 2025-11-06T06:34:55.883424
MEAN_MOTION    = 14.86490344
ECCENTRICITY   = .00203067
INCLINATION    = 82.5670
RA_OF_ASC_NODE = 256.8127
ARG_OF_PERICENTER = 355.5055
MEAN_ANOMALY   = 118.4069

EPHEMERIS_TYPE = 0
CLASSIFICATION_TYPE = U
NORAD_CAT_ID   = 13553
ELEMENT_SET_NO = 999
REV_AT_EPOCH   = 31059
BSTAR          = .10179043E-3
MEAN_MOTION_DOT = .927E-5
MEAN_MOTION_DDOT = 0

CCSDS_OMM_VERS = 2.0
CREATION_DATE  = 
ORIGINATOR     = 

OBJECT_NAME    = SL-3 R/B
OBJECT_ID      = 1983-010B
CENTER_NAME    = EARTH
REF_FRAME      = TEME
TIME_SYSTEM    = UTC
MEAN_ELEMENT_THEORY = SGP/SGP4

EPOCH          = 2025-11-06T01:29:32.751168
MEAN_MOTION    = 15.42116855
ECCENTRICITY   = .00183485
INCLINATION    = 81.1022
RA_OF_ASC_NODE = 153.3434
ARG_OF_PERICENTER = 115.2394
MEAN_ANOMALY   = 245.0753

EPHEMERIS_TYPE = 0
CLASSIFICATION_TYPE = U
NORAD_CAT_ID   = 13819
ELEMENT_SET_NO = 999
REV_AT_EPOCH   = 33886
BSTAR          = .34927349E-3
MEAN_MOTION_DOT = .15073E-3
MEAN_MOTION_DDOT = 0

CCSDS_OMM_VERS = 2.0
CREATION_DATE  = 
ORIGINATOR     = 

OBJECT_NAME    = SL-3 R/B
OBJECT_ID      = 1983-075B
CENTER_NAME    = EARTH
REF_FRAME      = TEME
TIME_SYSTEM    = UTC
MEAN_ELEMENT_THEORY = SGP/SGP4

EPOCH          = 2025-11-06T05:32:41.703936
MEAN_MOTION    = 15.35055091
ECCENTRICITY   = .00217911
INCLINATION    = 97.6096
RA_OF_ASC_NODE = 305.5182
ARG_OF_PERICENTER = 314.8165
MEAN_ANOMALY   = 45.1305

EPHEMERIS_TYPE = 0
CLASSIFICATION_TYPE = U
NORAD_CAT_ID   = 14208
ELEMENT_SET_NO = 999
REV_AT_EPOCH   = 31119
BSTAR          = .44008179E-3
MEAN_MOTION_DOT = .1501E-3
MEAN_MOTION_DDOT = 0

CCSDS_OMM_VERS = 2.0
CREATION_DATE  = 
ORIGINATOR     = 

OBJECT_NAME    = COSMOS 1536
OBJECT_ID      = 1984-013A
CENTER_NAME    = EARTH
REF_FRAME      = TEME
TIME_SYSTEM    = UTC
MEAN_ELEMENT_THEORY = SGP/SGP4

EPOCH          = 2025-11-06T06:10:35.893632
MEAN_MOTION    = 15.21856186
ECCENTRICITY   = .00154685
INCLINATION    = 82.5478
RA_OF_ASC_NODE = 230.3216
ARG_OF_PERICENTER = 4.9820
MEAN_ANOMALY   = 355.1567

EPHEMERIS_TYPE = 0
CLASSIFICATION_TYPE = U
NORAD_CAT_ID   = 14699
ELEMENT_SET_NO = 999
REV_AT_EPOCH   = 25383
BSTAR          = .56051737E-3
MEAN_MOTION_DOT = .12821E-3
MEAN_MOTION_DDOT = 0

CCSDS_OMM_VERS = 2.0
CREATION_DATE  = 
ORIGINATOR     = 

OBJECT_NAME    = SL-14 R/B
OBJECT_ID      = 1984-027B
CENTER_NAME    = EARTH
REF_FRAME      = TEME
TIME_SYSTEM    = UTC
MEAN_ELEMENT_THEORY = SGP/SGP4

EPOCH          = 2025-11-06T04:33:47.199168
MEAN_MOTION    = 14.85817770
ECCENTRICITY   = .00186524
INCLINATION    = 82.5436
RA_OF_ASC_NODE = 0.8312
ARG_OF_PERICENTER = 27.1281
MEAN_ANOMALY   = 333.0906

EPHEMERIS_TYPE = 0
CLASSIFICATION_TYPE = U
NORAD_CAT_ID   = 14820
ELEMENT_SET_NO = 999
REV_AT_EPOCH   = 22929
BSTAR          = .75103628E-4
MEAN_MOTION_DOT = .679E-5
MEAN_MOTION_DDOT = 0

CCSDS_OMM_VERS = 2.0
CREATION_DATE  = 
ORIGINATOR     = 

OBJECT_NAME    = SL-8 R/B
OBJECT_ID      = 1985-006B
CENTER_NAME    = EARTH
REF_FRAME      = TEME
TIME_SYSTEM    = UTC
MEAN_ELEMENT_THEORY = SGP/SGP4

EPOCH          = 2025-11-06T05:48:01.863936
MEAN_MOTION    = 14.37686983
ECCENTRICITY   = .00174938
INCLINATION    = 74.0429
RA_OF_ASC_NODE = 128.2832
ARG_OF_PERICENTER = 72.6494
MEAN_ANOMALY   = 100.2416

EPHEMERIS_TYPE = 0
CLASSIFICATION_TYPE = U
NORAD_CAT_ID   = 15483
ELEMENT_SET_NO = 999
REV_AT_EPOCH   = 13628
BSTAR          = .11707324E-3
MEAN_MOTION_DOT = .326E-5
MEAN_MOTION_DDOT = 0

CCSDS_OMM_VERS = 2.0
CREATION_DATE  = 
ORIGINATOR     = 

OBJECT_NAME    = SL-12 R/B(2)
OBJECT_ID      = 1985-042D
CENTER_NAME    = EARTH
REF_FRAME      = TEME
TIME_SYSTEM    = UTC
MEAN_ELEMENT_THEORY = SGP/SGP4

EPOCH          = 2025-11-06T07:23:58.065216
MEAN_MOTION    = 14.21934198
ECCENTRICITY   = .00370184
INCLINATION    = 71.1092
RA_OF_ASC_NODE = 348.3875
ARG_OF_PERICENTER = 314.9586
MEAN_ANOMALY   = 118.8777

EPHEMERIS_TYPE = 0
CLASSIFICATION_TYPE = U
NORAD_CAT_ID   = 15772
ELEMENT_SET_NO = 999
REV_AT_EPOCH   = 9685
BSTAR          = .12272966E-3
MEAN_MOTION_DOT = .225E-5
MEAN_MOTION_DDOT = 0

CCSDS_OMM_VERS = 2.0
CREATION_DATE  = 
ORIGINATOR     = 

OBJECT_NAME    = SL-14 R/B
OBJECT_ID      = 1985-069B
CENTER_NAME    = EARTH
REF_FRAME      = TEME
TIME_SYSTEM    = UTC
MEAN_ELEMENT_THEORY = SGP/SGP4

EPOCH          = 2025-11-06T06:42:32.724288
MEAN_MOTION    = 14.86258644
ECCENTRICITY   = .00175005
INCLINATION    = 82.5249
RA_OF_ASC_NODE = 140.9815
ARG_OF_PERICENTER = 239.0425
MEAN_ANOMALY   = 120.9072

EPHEMERIS_TYPE = 0
CLASSIFICATION_TYPE = U
NORAD_CAT_ID   = 15945
ELEMENT_SET_NO = 999
REV_AT_EPOCH   = 15450
BSTAR          = .77016261E-4
MEAN_MOTION_DOT = .703E-5
MEAN_MOTION_DDOT = 0

CCSDS_OMM_VERS = 2.0
CREATION_DATE  = 
ORIGINATOR     = 

OBJECT_NAME    = SL-16 R/B
OBJECT_ID      = 1985-097B
CENTER_NAME    = EARTH
REF_FRAME      = TEME
TIME_SYSTEM    = UTC
MEAN_ELEMENT_THEORY = SGP/SGP4

EPOCH          = 2025-11-06T06:33:08.610048
MEAN_MOTION    = 14.16576624
ECCENTRICITY   = .00050857
INCLINATION    = 71.0047
RA_OF_ASC_NODE = 40.3738
ARG_OF_PERICENTER = 81.1130
MEAN_ANOMALY   = 343.9437

EPHEMERIS_TYPE = 0
CLASSIFICATION_TYPE = U
NORAD_CAT_ID   = 16182
ELEMENT_SET_NO = 999
REV_AT_EPOCH   = 6975
BSTAR          = -.55171183E-4
MEAN_MOTION_DOT = -.158E-5
MEAN_MOTION_DDOT = 0

CCSDS_OMM_VERS = 2.0
CREATION_DATE  = 
ORIGINATOR     = 

OBJECT_NAME    = SL-14 R/B
OBJECT_ID      = 1986-006B
CENTER_NAME    = EARTH
REF_FRAME      = TEME
TIME_SYSTEM    = UTC
MEAN_ELEMENT_THEORY = SGP/SGP4

EPOCH          = 2025-11-06T06:52:27.200352
MEAN_MOTION    = 14.86595602
ECCENTRICITY   = .00758507
INCLINATION    = 82.5298
RA_OF_ASC_NODE = 15.8469
ARG_OF_PERICENTER = 322.7008
MEAN_ANOMALY   = 36.8954

EPHEMERIS_TYPE = 0
CLASSIFICATION_TYPE = U
NORAD_CAT_ID   = 16496
ELEMENT_SET_NO = 999
REV_AT_EPOCH   = 13087
BSTAR          = .96306468E-4
MEAN_MOTION_DOT = .925E-5
MEAN_MOTION_DDOT = 0

